YAOGAN-47               
1 66988U 25289A   25354.09842060  .00002520  00000+0  10946-3 0  9992
2 66988  97.5265  59.2376 0000646  91.4531 268.6780 15.23243112  1668
CZ-4B R/B               
1 66989U 25289B   25358.89445499  .00131632  73058-5  61213-3 0  9999
2 66989  97.5229  65.1345 0139692 316.8099  42.2272 15.70180887  2471
TJS-22                  
1 66990U 25290A   25358.35027345  .00000015  00000+0  00000+0 0  9994
2 66990   1.9593 285.0352 0003406 343.0889  17.5508  1.00271403   275
CZ-3B R/B               
1 66991U 25290B   25349.72468800  .00057911 -20514-6  75879-3 0  9998
2 66991  28.4636 300.4666 7240884 182.7002 168.6250  2.38388611   165
2025-292A               
1 66993U 25292A   25358.91124501  .00004385  00000+0  31620-3 0  9993
2 66993  97.6497  71.3435 0014565 228.3806 131.6173 15.04583400  2228
2025-292B               
1 66994U 25292B   25358.91080834  .00004984  00000+0  35833-3 0  9999
2 66994  97.6506  71.3455 0014351 228.7248 131.2743 15.04631837  2226
2025-292C               
1 66995U 25292C   25358.91063156  .00005688  00000+0  40788-3 0  9995
2 66995  97.6496  71.3442 0014646 229.0815 130.9143 15.04664082  2220
2025-292D               
1 66996U 25292D   25358.91027242  .00003874  00000+0  27926-3 0  9996
2 66996  97.6492  71.3437 0013764 231.6337 128.3653 15.04675873  2226
2025-292E               
1 66997U 25292E   25358.90945627  .00004533  00000+0  32519-3 0  9999
2 66997  97.6512  71.3484 0014160 232.6185 127.3752 15.04766573  2211
2025-292F               
1 66998U 25292F   25358.90785920  .00006042  00000+0  42963-3 0  9999
2 66998  97.6531  71.3538 0015276 233.5606 126.4213 15.04947893  2229
2025-292G               
1 66999U 25292G   25358.90723786  .00006117  00000+0  43420-3 0  9994
2 66999  97.6540  71.3562 0014789 235.5442 124.4387 15.05011977  2221
2025-292H               
1 67000U 25292H   25358.90712680  .00007600  00000+0  53787-3 0  9994
2 67000  97.6552  71.3585 0014767 235.3911 124.5923 15.05041901  2090
