CCSDS_OMM_VERS = 2.0
CREATION_DATE  = 
ORIGINATOR     = 

OBJECT_NAME    = YAOGAN-47
OBJECT_ID      = 2025-289A
CENTER_NAME    = EARTH
REF_FRAME      = TEME
TIME_SYSTEM    = UTC
MEAN_ELEMENT_THEORY = SGP/SGP4

EPOCH          = 2025-12-20T02:21:43.539840
MEAN_MOTION    = 15.23243112
ECCENTRICITY   = .00006467
INCLINATION    = 97.5265
RA_OF_ASC_NODE = 59.2376
ARG_OF_PERICENTER = 91.4531
MEAN_ANOMALY   = 268.6780

EPHEMERIS_TYPE = 0
CLASSIFICATION_TYPE = U
NORAD_CAT_ID   = 66988
ELEMENT_SET_NO = 999
REV_AT_EPOCH   = 166
BSTAR          = .10945697E-3
MEAN_MOTION_DOT = .252E-4
MEAN_MOTION_DDOT = 0

CCSDS_OMM_VERS = 2.0
CREATION_DATE  = 
ORIGINATOR     = 

OBJECT_NAME    = CZ-4B R/B
OBJECT_ID      = 2025-289B
CENTER_NAME    = EARTH
REF_FRAME      = TEME
TIME_SYSTEM    = UTC
MEAN_ELEMENT_THEORY = SGP/SGP4

EPOCH          = 2025-12-24T21:28:00.911136
MEAN_MOTION    = 15.70180887
ECCENTRICITY   = .01396927
INCLINATION    = 97.5229
RA_OF_ASC_NODE = 65.1345
ARG_OF_PERICENTER = 316.8099
MEAN_ANOMALY   = 42.2272

EPHEMERIS_TYPE = 0
CLASSIFICATION_TYPE = U
NORAD_CAT_ID   = 66989
ELEMENT_SET_NO = 999
REV_AT_EPOCH   = 247
BSTAR          = .61213061E-3
MEAN_MOTION_DOT = .131632E-2
MEAN_MOTION_DDOT = .7305834E-5

CCSDS_OMM_VERS = 2.0
CREATION_DATE  = 
ORIGINATOR     = 

OBJECT_NAME    = TJS-22
OBJECT_ID      = 2025-290A
CENTER_NAME    = EARTH
REF_FRAME      = TEME
TIME_SYSTEM    = UTC
MEAN_ELEMENT_THEORY = SGP/SGP4

EPOCH          = 2025-12-24T08:24:23.626080
MEAN_MOTION    = 1.00271403
ECCENTRICITY   = .00034063
INCLINATION    = 1.9593
RA_OF_ASC_NODE = 285.0352
ARG_OF_PERICENTER = 343.0889
MEAN_ANOMALY   = 17.5508

EPHEMERIS_TYPE = 0
CLASSIFICATION_TYPE = U
NORAD_CAT_ID   = 66990
ELEMENT_SET_NO = 999
REV_AT_EPOCH   = 27
BSTAR          = 0
MEAN_MOTION_DOT = .15E-6
MEAN_MOTION_DDOT = 0

CCSDS_OMM_VERS = 2.0
CREATION_DATE  = 
ORIGINATOR     = 

OBJECT_NAME    = CZ-3B R/B
OBJECT_ID      = 2025-290B
CENTER_NAME    = EARTH
REF_FRAME      = TEME
TIME_SYSTEM    = UTC
MEAN_ELEMENT_THEORY = SGP/SGP4

EPOCH          = 2025-12-15T17:23:33.043200
MEAN_MOTION    = 2.38388611
ECCENTRICITY   = .7240884
INCLINATION    = 28.4636
RA_OF_ASC_NODE = 300.4666
ARG_OF_PERICENTER = 182.7002
MEAN_ANOMALY   = 168.6250

EPHEMERIS_TYPE = 0
CLASSIFICATION_TYPE = U
NORAD_CAT_ID   = 66991
ELEMENT_SET_NO = 999
REV_AT_EPOCH   = 16
BSTAR          = .75879E-3
MEAN_MOTION_DOT = .57911E-3
MEAN_MOTION_DDOT = -.20514E-6

CCSDS_OMM_VERS = 2.0
CREATION_DATE  = 
ORIGINATOR     = 

OBJECT_NAME    = 2025-292A
OBJECT_ID      = 2025-292A
CENTER_NAME    = EARTH
REF_FRAME      = TEME
TIME_SYSTEM    = UTC
MEAN_ELEMENT_THEORY = SGP/SGP4

EPOCH          = 2025-12-24T21:52:11.568864
MEAN_MOTION    = 15.04583400
ECCENTRICITY   = .00145652
INCLINATION    = 97.6497
RA_OF_ASC_NODE = 71.3435
ARG_OF_PERICENTER = 228.3806
MEAN_ANOMALY   = 131.6173

EPHEMERIS_TYPE = 0
CLASSIFICATION_TYPE = U
NORAD_CAT_ID   = 66993
ELEMENT_SET_NO = 999
REV_AT_EPOCH   = 222
BSTAR          = .31620209E-3
MEAN_MOTION_DOT = .4385E-4
MEAN_MOTION_DDOT = 0

CCSDS_OMM_VERS = 2.0
CREATION_DATE  = 
ORIGINATOR     = 

OBJECT_NAME    = 2025-292B
OBJECT_ID      = 2025-292B
CENTER_NAME    = EARTH
REF_FRAME      = TEME
TIME_SYSTEM    = UTC
MEAN_ELEMENT_THEORY = SGP/SGP4

EPOCH          = 2025-12-24T21:51:33.840576
MEAN_MOTION    = 15.04631837
ECCENTRICITY   = .00143512
INCLINATION    = 97.6506
RA_OF_ASC_NODE = 71.3455
ARG_OF_PERICENTER = 228.7248
MEAN_ANOMALY   = 131.2743

EPHEMERIS_TYPE = 0
CLASSIFICATION_TYPE = U
NORAD_CAT_ID   = 66994
ELEMENT_SET_NO = 999
REV_AT_EPOCH   = 222
BSTAR          = .35833392E-3
MEAN_MOTION_DOT = .4984E-4
MEAN_MOTION_DDOT = 0

CCSDS_OMM_VERS = 2.0
CREATION_DATE  = 
ORIGINATOR     = 

OBJECT_NAME    = 2025-292C
OBJECT_ID      = 2025-292C
CENTER_NAME    = EARTH
REF_FRAME      = TEME
TIME_SYSTEM    = UTC
MEAN_ELEMENT_THEORY = SGP/SGP4

EPOCH          = 2025-12-24T21:51:18.566784
MEAN_MOTION    = 15.04664082
ECCENTRICITY   = .00146462
INCLINATION    = 97.6496
RA_OF_ASC_NODE = 71.3442
ARG_OF_PERICENTER = 229.0815
MEAN_ANOMALY   = 130.9143

EPHEMERIS_TYPE = 0
CLASSIFICATION_TYPE = U
NORAD_CAT_ID   = 66995
ELEMENT_SET_NO = 999
REV_AT_EPOCH   = 222
BSTAR          = .4078832E-3
MEAN_MOTION_DOT = .5688E-4
MEAN_MOTION_DDOT = 0

CCSDS_OMM_VERS = 2.0
CREATION_DATE  = 
ORIGINATOR     = 

OBJECT_NAME    = 2025-292D
OBJECT_ID      = 2025-292D
CENTER_NAME    = EARTH
REF_FRAME      = TEME
TIME_SYSTEM    = UTC
MEAN_ELEMENT_THEORY = SGP/SGP4

EPOCH          = 2025-12-24T21:50:47.537088
MEAN_MOTION    = 15.04675873
ECCENTRICITY   = .00137646
INCLINATION    = 97.6492
RA_OF_ASC_NODE = 71.3437
ARG_OF_PERICENTER = 231.6337
MEAN_ANOMALY   = 128.3653

EPHEMERIS_TYPE = 0
CLASSIFICATION_TYPE = U
NORAD_CAT_ID   = 66996
ELEMENT_SET_NO = 999
REV_AT_EPOCH   = 222
BSTAR          = .27926132E-3
MEAN_MOTION_DOT = .3874E-4
MEAN_MOTION_DDOT = 0

CCSDS_OMM_VERS = 2.0
CREATION_DATE  = 
ORIGINATOR     = 

OBJECT_NAME    = 2025-292E
OBJECT_ID      = 2025-292E
CENTER_NAME    = EARTH
REF_FRAME      = TEME
TIME_SYSTEM    = UTC
MEAN_ELEMENT_THEORY = SGP/SGP4

EPOCH          = 2025-12-24T21:49:37.021728
MEAN_MOTION    = 15.04766573
ECCENTRICITY   = .00141606
INCLINATION    = 97.6512
RA_OF_ASC_NODE = 71.3484
ARG_OF_PERICENTER = 232.6185
MEAN_ANOMALY   = 127.3752

EPHEMERIS_TYPE = 0
CLASSIFICATION_TYPE = U
NORAD_CAT_ID   = 66997
ELEMENT_SET_NO = 999
REV_AT_EPOCH   = 221
BSTAR          = .32519144E-3
MEAN_MOTION_DOT = .4533E-4
MEAN_MOTION_DDOT = 0

CCSDS_OMM_VERS = 2.0
CREATION_DATE  = 
ORIGINATOR     = 

OBJECT_NAME    = 2025-292F
OBJECT_ID      = 2025-292F
CENTER_NAME    = EARTH
REF_FRAME      = TEME
TIME_SYSTEM    = UTC
MEAN_ELEMENT_THEORY = SGP/SGP4

EPOCH          = 2025-12-24T21:47:19.034880
MEAN_MOTION    = 15.04947893
ECCENTRICITY   = .00152765
INCLINATION    = 97.6531
RA_OF_ASC_NODE = 71.3538
ARG_OF_PERICENTER = 233.5606
MEAN_ANOMALY   = 126.4213

EPHEMERIS_TYPE = 0
CLASSIFICATION_TYPE = U
NORAD_CAT_ID   = 66998
ELEMENT_SET_NO = 999
REV_AT_EPOCH   = 222
BSTAR          = .42963076E-3
MEAN_MOTION_DOT = .6042E-4
MEAN_MOTION_DDOT = 0

CCSDS_OMM_VERS = 2.0
CREATION_DATE  = 
ORIGINATOR     = 

OBJECT_NAME    = 2025-292G
OBJECT_ID      = 2025-292G
CENTER_NAME    = EARTH
REF_FRAME      = TEME
TIME_SYSTEM    = UTC
MEAN_ELEMENT_THEORY = SGP/SGP4

EPOCH          = 2025-12-24T21:46:25.351104
MEAN_MOTION    = 15.05011977
ECCENTRICITY   = .00147898
INCLINATION    = 97.6540
RA_OF_ASC_NODE = 71.3562
ARG_OF_PERICENTER = 235.5442
MEAN_ANOMALY   = 124.4387

EPHEMERIS_TYPE = 0
CLASSIFICATION_TYPE = U
NORAD_CAT_ID   = 66999
ELEMENT_SET_NO = 999
REV_AT_EPOCH   = 222
BSTAR          = .43420168E-3
MEAN_MOTION_DOT = .6117E-4
MEAN_MOTION_DDOT = 0

CCSDS_OMM_VERS = 2.0
CREATION_DATE  = 
ORIGINATOR     = 

OBJECT_NAME    = 2025-292H
OBJECT_ID      = 2025-292H
CENTER_NAME    = EARTH
REF_FRAME      = TEME
TIME_SYSTEM    = UTC
MEAN_ELEMENT_THEORY = SGP/SGP4

EPOCH          = 2025-12-24T21:46:15.755520
MEAN_MOTION    = 15.05041901
ECCENTRICITY   = .00147677
INCLINATION    = 97.6552
RA_OF_ASC_NODE = 71.3585
ARG_OF_PERICENTER = 235.3911
MEAN_ANOMALY   = 124.5923

EPHEMERIS_TYPE = 0
CLASSIFICATION_TYPE = U
NORAD_CAT_ID   = 67000
ELEMENT_SET_NO = 999
REV_AT_EPOCH   = 209
BSTAR          = .53786509E-3
MEAN_MOTION_DOT = .76E-4
MEAN_MOTION_DDOT = 0

